     2              NAVIGATION DATA                         RINEX VERSION / TYPE
DAT2RINW 3.10 001   .                   04NOV08 22:57:28    PGM / RUN BY / DATE 
                                                            COMMENT             
     .1211D-07  -.7451D-08  -.1192D-06   .5960D-07          ION ALPHA           
     .9626D+05  -.3277D+05  -.1966D+06   .1966D+06          ION BETA            
    -.279396772385D-08 -.976996261670D-14   405504     1504 DELTA-UTC: A0,A1,T,W
    14                                                      LEAP SECONDS        
                                                            END OF HEADER       
25 08 11  4  5 59 44.0 -.460445880890D-05  .317186277243D-10  .000000000000D+00
     .240000000000D+02 -.632187500000D+02  .452518849226D-08 -.113660771072D+01
    -.324845314026D-05  .116252580192D-01  .464729964733D-05  .515369352913D+04
     .194384000000D+06 -.255182385445D-06  .240672845561D-02 -.931322574615D-08
     .967302289372D+00  .294500000000D+03 -.125135453125D+01 -.837177728956D-08
    -.653598653579D-10  .100000000000D+01  .150400000000D+04  .000000000000D+00
     .240000000000D+01  .000000000000D+00 -.745058059692D-08  .240000000000D+02
     .191148000000D+06
25 08 11  4  6  0  0.0 -.460818409920D-05  .316049408866D-10  .000000000000D+00
     .138000000000D+03 -.632187500000D+02  .452518849226D-08 -.113427374488D+01
    -.324845314026D-05  .116252528969D-01  .464729964733D-05  .515369351578D+04
     .194400000000D+06 -.255182385445D-06  .240659971882D-02 -.931322574615D-08
     .967302274742D+00  .294500000000D+03 -.125135475069D+01 -.837177728956D-08
    -.653598653579D-10  .100000000000D+01  .150400000000D+04  .000000000000D+00
     .340000000000D+01  .000000000000D+00 -.745058059692D-08  .138000000000D+03
     .187218000000D+06
27 08 11  4  4  0  0.0  .230158679187D-03  .284217094304D-11  .000000000000D+00
     .250000000000D+02 -.655000000000D+02  .409445626482D-08 -.223843728561D+01
    -.329501926899D-05  .213309258688D-01  .433251261711D-05  .515371349716D+04
     .187200000000D+06  .316649675369D-06  .378367654474D-01  .633299350739D-07
     .971931067504D+00  .295093750000D+03 -.167797720420D+01 -.762353183642D-08
     .500020827875D-11  .100000000000D+01  .150400000000D+04  .000000000000D+00
     .240000000000D+01  .000000000000D+00 -.419095158577D-08  .250000000000D+02
     .180042000000D+06
27 08 11  4  6  0  0.0  .230179633945D-03  .284217094304D-11  .000000000000D+00
     .260000000000D+02 -.588437500000D+02  .439482591928D-08 -.118832537875D+01
    -.274181365967D-05  .213312819833D-01  .490806996822D-05  .515371166992D+04
     .194400000000D+06 -.210478901863D-06  .377808117567D-01  .504776835442D-06
     .971927667683D+00  .291156250000D+03 -.167793445627D+01 -.828891669522D-08
    -.120362156424D-09  .100000000000D+01  .150400000000D+04  .000000000000D+00
     .240000000000D+01  .000000000000D+00 -.419095158577D-08  .260000000000D+02
     .187218000000D+06
27 08 11  4  8  0  0.0  .230200588703D-03  .284217094304D-11  .000000000000D+00
     .360000000000D+02 -.598750000000D+02  .447768651362D-08 -.138172634531D+00
    -.304356217384D-05  .213311471744D-01  .503845512867D-05  .515371133995D+04
     .201600000000D+06 -.292435288429D-06  .377189069153D-01  .115483999252D-06
     .971926440295D+00  .291218750000D+03 -.167792938580D+01 -.854321300197D-08
    -.196436753808D-10  .100000000000D+01  .150400000000D+04  .000000000000D+00
     .240000000000D+01  .000000000000D+00 -.419095158577D-08  .360000000000D+02
     .194418000000D+06
28 08 11  4  6  0  0.0 -.234073959291D-04 -.113686837722D-12  .000000000000D+00
     .450000000000D+02 -.582500000000D+02  .421588989445D-08 -.236816004387D+01
    -.303797423840D-05  .141451699892D-01  .845082104206D-05  .515363741684D+04
     .194400000000D+06  .143423676491D-06  .117263951760D+01 -.856816768646D-07
     .964636007065D+00  .217000000000D+03 -.208753120877D+01 -.755638618239D-08
     .295726603914D-09  .100000000000D+01  .150400000000D+04  .000000000000D+00
     .240000000000D+01  .000000000000D+00 -.102445483208D-07  .450000000000D+02
     .189102000000D+06
28 08 11  4  8  0  0.0 -.234083272517D-04 -.113686837722D-12  .000000000000D+00
     .460000000000D+02 -.601250000000D+02  .433875215501D-08 -.131794399041D+01
    -.305101275444D-05  .141448841896D-01  .862590968609D-05  .515363795090D+04
     .201600000000D+06  .309199094772D-06  .117258566320D+01  .251457095146D-06
     .964636688784D+00  .213875000000D+03 -.208754720286D+01 -.782104006343D-08
     .121076471892D-09  .100000000000D+01  .150400000000D+04  .000000000000D+00
     .340000000000D+01  .000000000000D+00 -.102445483208D-07  .460000000000D+02
     .194418000000D+06
28 08 11  4 10  0  0.0 -.234092585742D-04 -.113686837722D-12  .000000000000D+00
     .470000000000D+02 -.546250000000D+02  .451304512930D-08 -.267741052010D+00
    -.280700623989D-05  .141453415854D-01  .877119600773D-05  .515363856506D+04
     .208800000000D+06 -.838190317154D-07  .117252732788D+01  .137835741043D-06
     .964635988047D+00  .213656250000D+03 -.208754749983D+01 -.820855620503D-08
     .159649507186D-09  .100000000000D+01  .150400000000D+04  .000000000000D+00
     .340000000000D+01  .000000000000D+00 -.102445483208D-07  .470000000000D+02
     .201618000000D+06
29 08 11  4  0  0  0.0 -.316905789077D-04  .170530256582D-11  .000000000000D+00
     .101000000000D+03 -.478125000000D+01  .468412368398D-08  .294024797164D+01
    -.419095158577D-06  .329909706488D-02  .717677175999D-05  .515379789543D+04
     .172800000000D+06  .670552253723D-07  .221444408762D+01  .204890966415D-07
     .959625638454D+00  .240093750000D+03 -.134165367049D+01 -.789425739894D-08
     .163578242262D-09  .100000000000D+01  .150400000000D+04  .000000000000D+00
     .240000000000D+01  .000000000000D+00 -.884756445885D-08  .101000000000D+03
     .172422000000D+06
29 08 11  4  2  0  0.0 -.316784717143D-04  .170530256582D-11  .000000000000D+00
     .102000000000D+03 -.331250000000D+01  .464233622908D-08 -.229287101613D+01
    -.152736902237D-06  .329919508658D-02  .709854066372D-05  .515379764175D+04
     .180000000000D+06  .745058059692D-07  .221438728397D+01  .670552253723D-07
     .959626798548D+00  .239281250000D+03 -.134161407954D+01 -.791175812791D-08
     .160363822654D-09  .100000000000D+01  .150400000000D+04  .000000000000D+00
     .240000000000D+01  .000000000000D+00 -.884756445885D-08  .102000000000D+03
     .172818000000D+06
31 08 11  4  0  0  0.0 -.363909639418D-04 -.216004991671D-11  .000000000000D+00
     .820000000000D+02 -.697812500000D+02  .422624746874D-08 -.260962334942D+01
    -.356137752533D-05  .682815455366D-02  .511296093464D-05  .515357229424D+04
     .172800000000D+06  .137835741043D-06  .943330583105D-01  .353902578354D-07
     .970344883948D+00  .287625000000D+03 -.123830255901D+01 -.786497046473D-08
    -.675028117631D-10  .100000000000D+01  .150400000000D+04  .000000000000D+00
     .240000000000D+01  .000000000000D+00 -.130385160446D-07  .820000000000D+02
     .172416000000D+06
31 08 11  4  2  0  0.0 -.364067964256D-04 -.216004991671D-11  .000000000000D+00
     .187000000000D+03 -.712812500000D+02  .435410993758D-08 -.155936052354D+01
    -.362284481525D-05  .682798936032D-02  .512972474098D-05  .515357268524D+04
     .180000000000D+06 -.104308128357D-06  .942758245665D-01  .165775418282D-06
     .970343042134D+00  .288718750000D+03 -.123832453643D+01 -.813176729218D-08
    -.103932900651D-09  .100000000000D+01  .150400000000D+04  .000000000000D+00
     .340000000000D+01  .000000000000D+00 -.130385160446D-07  .187000000000D+03
     .172818000000D+06
32 08 11  4  6  0  0.0  .315007288009D-03 -.102318153949D-11  .000000000000D+00
     .630000000000D+02  .761562500000D+02  .432875173846D-08  .146080359357D+01
     .374950468540D-05  .139468185371D-01  .763684511185D-05  .515372266197D+04
     .194400000000D+06  .242143869400D-06 -.191235203968D+01 -.299885869026D-06
     .966778364279D+00  .235187500000D+03 -.125865871152D+01 -.787675666996D-08
    -.457161899771D-10  .100000000000D+01  .150400000000D+04  .000000000000D+00
     .240000000000D+01  .000000000000D+00 -.325962901115D-08  .630000000000D+02
     .190842000000D+06
32 08 11  4  8  0  0.0  .315000303090D-03 -.102318153949D-11  .000000000000D+00
     .660000000000D+02  .837812500000D+02  .418731727571D-08  .251086982813D+01
     .416114926338D-05  .139466502005D-01  .729970633984D-05  .515372473907D+04
     .201600000000D+06  .214204192162D-06 -.191240698395D+01 -.372529029846D-08
     .966778296985D+00  .240468750000D+03 -.125857744350D+01 -.767496255014D-08
    -.146434671020D-09  .100000000000D+01  .150400000000D+04  .000000000000D+00
     .240000000000D+01  .000000000000D+00 -.325962901115D-08  .660000000000D+02
     .194418000000D+06
32 08 11  4  9 59 28.0  .314991455525D-03 -.102318153949D-11  .000000000000D+00
     .240000000000D+02  .802187500000D+02  .411481425567D-08 -.272681747684D+01
     .410154461861D-05  .139465999091D-01  .704266130924D-05  .515372476387D+04
     .208768000000D+06  .124797224998D-06 -.191246259825D+01  .150874257088D-06
     .966777809833D+00  .241812500000D+03 -.125859490343D+01 -.764710424687D-08
    -.153577825704D-10  .100000000000D+01  .150400000000D+04  .000000000000D+00
     .240000000000D+01  .000000000000D+00 -.325962901115D-08  .240000000000D+02
     .201918000000D+06
32 08 11  4 10  0  0.0  .314993318170D-03 -.102318153949D-11  .000000000000D+00
     .710000000000D+02  .802187500000D+02  .411481425567D-08 -.272215044925D+01
     .410154461861D-05  .139465996763D-01  .704266130924D-05  .515372477722D+04
     .208800000000D+06  .124797224998D-06 -.191246284548D+01  .150874257088D-06
     .966777820074D+00  .241812500000D+03 -.125859468253D+01 -.764710424687D-08
    -.153577825704D-10  .100000000000D+01  .150400000000D+04  .000000000000D+00
     .240000000000D+01  .000000000000D+00 -.325962901115D-08  .710000000000D+02
     .201618000000D+06
